ONEWEB-0198             
1 48216U 21031G   26191.21427659 -.00000189  00000+0 -54436-3 0  9997
2 48216  87.8960 285.1218 0002456 102.9387 257.2017 13.14502687251510
ONEWEB-0189             
1 48217U 21031H   26191.22682304 -.00000051  00000+0 -17272-3 0  9994
2 48217  87.8970 285.1081 0002366 103.4621 256.6773 13.14502404251257
ONEWEB-0196             
1 48218U 21031J   26191.20462122 -.00000159  00000+0 -46274-3 0  9990
2 48218  87.8968 285.1211 0002183  99.2321 260.9056 13.14502267251255
ONEWEB-0183             
1 48219U 21031K   26190.26583378  .00000103  00000+0  24408-3 0  9995
2 48219  87.8967 285.3061 0001983  92.1445 267.9912 13.14501888251229
ONEWEB-0185             
1 48220U 21031L   26191.20540141 -.00000149  00000+0 -43730-3 0  9994
2 48220  87.8975 285.1138 0002251  90.1848 269.9539 13.14503520251274
ONEWEB-0192             
1 48222U 21031N   26191.23158299  .00000013  00000+0  92848-6 0  9993
2 48222  87.8969 285.1124 0002110 100.8952 259.2416 13.14503192251207
ONEWEB-0219             
1 48223U 21031P   26191.21095310 -.00000187  00000+0 -53907-3 0  9990
2 48223  87.8978 285.1098 0002242  95.6962 264.4423 13.14503335251403
ONEWEB-0202             
1 48224U 21031Q   26191.26805884  .00000018  00000+0  15221-4 0  9990
2 48224  87.8974 285.1108 0002603 110.8171 249.3238 13.14502513251396
ONEWEB-0204             
1 48225U 21031R   26191.22601449 -.00000085  00000+0 -26281-3 0  9991
2 48225  87.8969 285.1136 0001857  88.6576 271.4767 13.14499581251284
ONEWEB-0205             
1 48226U 21031S   26191.20144721 -.00000117  00000+0 -35119-3 0  9991
2 48226  87.8981 285.1126 0002342  97.7252 262.4143 13.14502332251298
ONEWEB-0206             
1 48227U 21031T   26190.26107083  .00000211  00000+0  53558-3 0  9997
2 48227  87.8975 285.3006 0001880 102.9897 257.1443 13.14501869251121
ONEWEB-0182             
1 48228U 21031U   26191.24584598  .00000205  00000+0  51769-3 0  9992
2 48228  87.8969 285.1116 0001950  93.7218 266.4135 13.14503788251467
ONEWEB-0186             
1 48229U 21031V   26190.19130197  .00000106  00000+0  25022-3 0  9991
2 48229  87.8985 285.3137 0002131 101.1848 258.9522 13.14502615251279
ONEWEB-0181             
1 48230U 21031W   26190.24520222  .00000214  00000+0  54144-3 0  9998
2 48230  87.8959 285.3289 0002241 101.2601 258.8781 13.14504809251138
ONEWEB-0188             
1 48231U 21031X   26191.19668585 -.00000059  00000+0 -19270-3 0  9999
2 48231  87.8962 285.1391 0002058  97.7321 262.4042 13.14502109251164
ONEWEB-0220             
1 48232U 21031Y   26191.23632324  .00000142  00000+0  34747-3 0  9994
2 48232  87.8972 285.1081 0002299  97.5146 262.6245 13.14503752251434
ONEWEB-0165             
1 48233U 21031Z   26191.26488536  .00000100  00000+0  23448-3 0  9992
2 48233  87.8971 285.1133 0002410 103.7881 256.3517 13.14503611251394
ONEWEB-0199             
1 48234U 21031AA  26191.24902317  .00000286  00000+0  73794-3 0  9993
2 48234  87.8986 285.1022 0001853 106.2115 253.9219 13.14502000251298
ONEWEB-0203             
1 48235U 21031AB  26191.23950189  .00000180  00000+0  45165-3 0  9997
2 48235  87.8969 285.1090 0002003 108.2812 251.8536 13.14501526251302
ONEWEB-0197             
1 48236U 21031AC  26190.22445633 -.00000074  00000+0 -23385-3 0  9993
2 48236  87.8966 285.2954 0002010  92.8752 267.2608 13.14502122251088
ONEWEB-0194             
1 48237U 21031AD  26191.19351596  .00000035  00000+0  60376-4 0  9992
2 48237  87.8963 285.1264 0001881 108.7782 251.3552 13.14503833251389
ONEWEB-0193             
1 48238U 21031AE  26191.20937599 -.00000220  00000+0 -62874-3 0  9990
2 48238  87.8969 285.1118 0001738 109.7268 250.4050 13.14502191251339
ONEWEB-0191             
1 48239U 21031AF  26191.22047795 -.00000205  00000+0 -58775-3 0  9991
2 48239  87.8982 285.1108 0002107  96.4585 263.6784 13.14506789251190
ONEWEB-0195             
1 48240U 21031AG  26189.82736263 -.00000192  00000+0 -55117-3 0  9993
2 48240  87.8984 285.3867 0002428 104.2320 255.9080 13.14503192250994
ONEWEB-0201             
1 48241U 21031AH  26191.18572295  .00000145  00000+0  35542-3 0  9995
2 48241  87.8972 285.1316 0002076  91.6013 268.5355 13.14502160251402
ONEWEB-0207             
1 48242U 21031AJ  26191.24186862  .00000135  00000+0  33078-3 0  9995
2 48242  87.8975 285.1075 0001982  92.5945 267.5412 13.14504527251320
ONEWEB-0208             
1 48243U 21031AK  26191.22364434 -.00000143  00000+0 -41947-3 0  9992
2 48243  87.8960 285.1160 0002404 105.3197 254.8199 13.14502492251333
ONEWEB-0200             
1 48244U 21031AL  26190.57823615  .00000029  00000+0  43412-4 0  9992
2 48244  87.8984 285.2330 0002125  99.8545 260.2825 13.14501919251176
ONEWEB-0217             
1 48245U 21031AM  26191.20303220 -.00000152  00000+0 -44412-3 0  9998
2 48245  87.8979 285.1129 0002369 104.4516 255.6877 13.14502621251207
